start=new Date('2022-07-22T00:00:00.000Z').valueOf();
sats=[{"REF_FRAME":"TEME","RA_OF_ASC_NODE":"155.2250","SEMIMAJOR_AXIS":"6917.940","MEAN_MOTION_DDOT":"0.0000000000000","OBJECT_NAME":"STARLINK-3521","OBJECT_TYPE":"PAYLOAD","MEAN_MOTION_DOT":"0.00003042","MEAN_MOTION":"15.08820441","LAUNCH_DATE":"2022-02-21","DECAY_DATE":null,"CENTER_NAME":"EARTH","REV_AT_EPOCH":"130","ARG_OF_PERICENTER":"56.7030","FILE":"3519265","TLE_LINE2":"2 51742  53.2146 155.2250 0001508  56.7030  12.5092 15.08820441  1303","INCLINATION":"53.2146","RCS_SIZE":"LARGE","CLASSIFICATION_TYPE":"U","OBJECT_ID":"2022-016AE","COUNTRY_CODE":"US","EPHEMERIS_TYPE":"0","EPOCH":"2022-07-21T22:00:00.999936","BSTAR":"0.00020925000000","SITE":"AFETR","MEAN_ANOMALY":"12.5092","PERIAPSIS":"538.762","APOAPSIS":"540.848","PERIOD":"95.439","MEAN_ELEMENT_THEORY":"SGP4","TLE_LINE1":"1 51742U 22016AE  22202.91667824  .00003042  00000-0  20925-3 0  9991","ELEMENT_SET_NO":"999","NORAD_CAT_ID":"51742","TIME_SYSTEM":"UTC","ECCENTRICITY":"0.00015080","GP_ID":"208606179"},{"TLE_LINE2":"2 51743  53.2148 145.2354 0002038  53.2648 230.9546 15.08826998 24539","FILE":"3519265","RCS_SIZE":"LARGE","INCLINATION":"53.2148","REV_AT_EPOCH":"2453","ARG_OF_PERICENTER":"53.2648","OBJECT_TYPE":"PAYLOAD","OBJECT_NAME":"STARLINK-3512","MEAN_MOTION_DDOT":"0.0000000000000","CENTER_NAME":"EARTH","DECAY_DATE":null,"LAUNCH_DATE":"2022-02-21","MEAN_MOTION":"15.08826998","MEAN_MOTION_DOT":"-0.00004188","SEMIMAJOR_AXIS":"6917.920","RA_OF_ASC_NODE":"145.2354","REF_FRAME":"TEME","GP_ID":"208606926","ELEMENT_SET_NO":"999","TIME_SYSTEM":"UTC","NORAD_CAT_ID":"51743","ECCENTRICITY":"0.00020380","MEAN_ELEMENT_THEORY":"SGP4","TLE_LINE1":"1 51743U 22016AF  22202.91667824 -.00004188  00000-0 -24523-3 0  9994","SITE":"AFETR","BSTAR":"-0.00024523000000","EPOCH":"2022-07-21T22:00:00.999936","PERIOD":"95.438","APOAPSIS":"541.195","PERIAPSIS":"538.375","MEAN_ANOMALY":"230.9546","EPHEMERIS_TYPE":"0","COUNTRY_CODE":"US","CLASSIFICATION_TYPE":"U","OBJECT_ID":"2022-016AF"},{"RA_OF_ASC_NODE":"155.2226","REF_FRAME":"TEME","SEMIMAJOR_AXIS":"6917.930","OBJECT_TYPE":"PAYLOAD","MEAN_MOTION_DDOT":"0.0000000000000","OBJECT_NAME":"STARLINK-3452","DECAY_DATE":null,"CENTER_NAME":"EARTH","MEAN_MOTION_DOT":"0.00004395","MEAN_MOTION":"15.08823806","LAUNCH_DATE":"2022-02-21","REV_AT_EPOCH":"130","ARG_OF_PERICENTER":"50.3776","TLE_LINE2":"2 51744  53.2169 155.2226 0001889  50.3776  53.6168 15.08823806  1300","FILE":"3519265","RCS_SIZE":"MEDIUM","INCLINATION":"53.2169","EPHEMERIS_TYPE":"0","CLASSIFICATION_TYPE":"U","OBJECT_ID":"2022-016AG","COUNTRY_CODE":"US","SITE":"AFETR","EPOCH":"2022-07-21T22:00:00.999936","BSTAR":"0.00029417000000","APOAPSIS":"541.102","PERIOD":"95.439","MEAN_ANOMALY":"53.6168","PERIAPSIS":"538.488","MEAN_ELEMENT_THEORY":"SGP4","TLE_LINE1":"1 51744U 22016AG  22202.91667824  .00004395  00000-0  29417-3 0  9990","GP_ID":"208605685","ELEMENT_SET_NO":"999","ECCENTRICITY":"0.00018890","NORAD_CAT_ID":"51744","TIME_SYSTEM":"UTC"},{"TLE_LINE2":"2 51745  53.2161 155.2271 0001762  41.6766 347.5157 15.08830493  1308","FILE":"3519265","RCS_SIZE":"LARGE","INCLINATION":"53.2161","REV_AT_EPOCH":"130","ARG_OF_PERICENTER":"41.6766","OBJECT_TYPE":"PAYLOAD","MEAN_MOTION_DDOT":"0.0000000000000","OBJECT_NAME":"STARLINK-3449","DECAY_DATE":null,"CENTER_NAME":"EARTH","MEAN_MOTION_DOT":"0.00002996","MEAN_MOTION":"15.08830493","LAUNCH_DATE":"2022-02-21","RA_OF_ASC_NODE":"155.2271","REF_FRAME":"TEME","SEMIMAJOR_AXIS":"6917.909","GP_ID":"208605935","NORAD_CAT_ID":"51745","ELEMENT_SET_NO":"999","TIME_SYSTEM":"UTC","ECCENTRICITY":"0.00017620","MEAN_ELEMENT_THEORY":"SGP4","TLE_LINE1":"1 51745U 22016AH  22202.91667824  .00002996  00000-0  20633-3 0  9997","SITE":"AFETR","EPOCH":"2022-07-21T22:00:00.999936","BSTAR":"0.00020633000000","APOAPSIS":"540.993","PERIOD":"95.438","MEAN_ANOMALY":"347.5157","PERIAPSIS":"538.556","EPHEMERIS_TYPE":"0","OBJECT_ID":"2022-016AH","CLASSIFICATION_TYPE":"U","COUNTRY_CODE":"US"},{"OBJECT_ID":"2022-016AJ","CLASSIFICATION_TYPE":"U","COUNTRY_CODE":"US","EPHEMERIS_TYPE":"0","BSTAR":"0.00106490000000","EPOCH":"2022-07-21T22:00:00.999936","SITE":"AFETR","MEAN_ANOMALY":"247.6380","PERIAPSIS":"538.613","APOAPSIS":"540.993","PERIOD":"95.439","MEAN_ELEMENT_THEORY":"SGP4","TLE_LINE1":"1 51746U 22016AJ  22202.91667824  .00016692  00000-0  10649-2 0  9991","NORAD_CAT_ID":"51746","ELEMENT_SET_NO":"999","ECCENTRICITY":"0.00017200","TIME_SYSTEM":"UTC","GP_ID":"208606680","REF_FRAME":"TEME","RA_OF_ASC_NODE":"145.2333","SEMIMAJOR_AXIS":"6917.938","MEAN_MOTION_DDOT":"0.0000000000000","OBJECT_NAME":"STARLINK-3502","OBJECT_TYPE":"PAYLOAD","MEAN_MOTION_DOT":"0.00016692","LAUNCH_DATE":"2022-02-21","MEAN_MOTION":"15.08821135","DECAY_DATE":null,"CENTER_NAME":"EARTH","REV_AT_EPOCH":"130","ARG_OF_PERICENTER":"56.5879","FILE":"3519265","TLE_LINE2":"2 51746  53.2161 145.2333 0001720  56.5879 247.6380 15.08821135  1302","INCLINATION":"53.2161","RCS_SIZE":"LARGE"},{"SEMIMAJOR_AXIS":"6917.957","REF_FRAME":"TEME","RA_OF_ASC_NODE":"155.2256","OBJECT_TYPE":"PAYLOAD","OBJECT_NAME":"STARLINK-3446","MEAN_MOTION_DDOT":"0.0000000000000","CENTER_NAME":"EARTH","DECAY_DATE":null,"MEAN_MOTION":"15.08815042","LAUNCH_DATE":"2022-02-21","MEAN_MOTION_DOT":"0.00039887","REV_AT_EPOCH":"130","ARG_OF_PERICENTER":"53.6985","TLE_LINE2":"2 51747  53.2176 155.2256 0001713  53.6985  35.5286 15.08815042  1301","FILE":"3519265","RCS_SIZE":"LARGE","INCLINATION":"53.2176","EPHEMERIS_TYPE":"0","COUNTRY_CODE":"US","CLASSIFICATION_TYPE":"U","OBJECT_ID":"2022-016AK","SITE":"AFETR","BSTAR":"0.00251180000000","EPOCH":"2022-07-21T22:00:00.999936","PERIOD":"95.439","APOAPSIS":"541.007","PERIAPSIS":"538.637","MEAN_ANOMALY":"35.5286","MEAN_ELEMENT_THEORY":"SGP4","TLE_LINE1":"1 51747U 22016AK  22202.91667824  .00039887  00000-0  25118-2 0  9990","GP_ID":"208606426","ECCENTRICITY":"0.00017130","ELEMENT_SET_NO":"999","NORAD_CAT_ID":"51747","TIME_SYSTEM":"UTC"},{"MEAN_ELEMENT_THEORY":"SGP4","TLE_LINE1":"1 51748U 22016AL  22202.91667824 -.00005236  00000-0 -31112-3 0  9996","ELEMENT_SET_NO":"999","NORAD_CAT_ID":"51748","ECCENTRICITY":"0.00019240","TIME_SYSTEM":"UTC","GP_ID":"208582433","COUNTRY_CODE":"US","OBJECT_ID":"2022-016AL","CLASSIFICATION_TYPE":"U","EPHEMERIS_TYPE":"0","EPOCH":"2022-07-21T22:00:00.999936","BSTAR":"-0.00031112000000","SITE":"AFETR","PERIAPSIS":"538.421","MEAN_ANOMALY":"290.5221","PERIOD":"95.438","APOAPSIS":"541.083","REV_AT_EPOCH":"2446","ARG_OF_PERICENTER":"53.6749","FILE":"3519252","TLE_LINE2":"2 51748  53.2167 145.2419 0001924  53.6749 290.5221 15.08837743 24460","INCLINATION":"53.2167","RCS_SIZE":"LARGE","SEMIMAJOR_AXIS":"6917.887","RA_OF_ASC_NODE":"145.2419","REF_FRAME":"TEME","OBJECT_NAME":"STARLINK-3501","MEAN_MOTION_DDOT":"0.0000000000000","OBJECT_TYPE":"PAYLOAD","LAUNCH_DATE":"2022-02-21","MEAN_MOTION":"15.08837743","MEAN_MOTION_DOT":"-0.00005236","CENTER_NAME":"EARTH","DECAY_DATE":null},{"INCLINATION":"53.2162","RCS_SIZE":"LARGE","FILE":"3519265","TLE_LINE2":"2 51749  53.2162 155.2278 0001933  61.4486 222.5623 15.08821584  1300","ARG_OF_PERICENTER":"61.4486","REV_AT_EPOCH":"130","MEAN_MOTION":"15.08821584","LAUNCH_DATE":"2022-02-21","MEAN_MOTION_DOT":"0.00004511","CENTER_NAME":"EARTH","DECAY_DATE":null,"OBJECT_NAME":"STARLINK-3451","MEAN_MOTION_DDOT":"0.0000000000000","OBJECT_TYPE":"PAYLOAD","SEMIMAJOR_AXIS":"6917.937","RA_OF_ASC_NODE":"155.2278","REF_FRAME":"TEME","NORAD_CAT_ID":"51749","ELEMENT_SET_NO":"999","ECCENTRICITY":"0.00019330","TIME_SYSTEM":"UTC","GP_ID":"208605435","TLE_LINE1":"1 51749U 22016AM  22202.91667824  .00004511  00000-0  30146-3 0  9996","MEAN_ELEMENT_THEORY":"SGP4","PERIAPSIS":"538.464","MEAN_ANOMALY":"222.5623","PERIOD":"95.439","APOAPSIS":"541.139","BSTAR":"0.00030146000000","EPOCH":"2022-07-21T22:00:00.999936","SITE":"AFETR","COUNTRY_CODE":"US","OBJECT_ID":"2022-016AM","CLASSIFICATION_TYPE":"U","EPHEMERIS_TYPE":"0"},{"PERIAPSIS":"538.253","MEAN_ANOMALY":"329.7019","PERIOD":"95.438","APOAPSIS":"541.247","EPOCH":"2022-07-21T22:00:00.999936","BSTAR":"-0.00032990000000","SITE":"AFETR","COUNTRY_CODE":"US","CLASSIFICATION_TYPE":"U","OBJECT_ID":"2022-016AN","EPHEMERIS_TYPE":"0","ECCENTRICITY":"0.00021640","ELEMENT_SET_NO":"999","NORAD_CAT_ID":"51750","TIME_SYSTEM":"UTC","GP_ID":"208606180","TLE_LINE1":"1 51750U 22016AN  22202.91667824 -.00005535  00000-0 -32990-3 0  9996","MEAN_ELEMENT_THEORY":"SGP4","LAUNCH_DATE":"2022-02-21","MEAN_MOTION":"15.08838450","MEAN_MOTION_DOT":"-0.00005535","CENTER_NAME":"EARTH","DECAY_DATE":null,"OBJECT_NAME":"STARLINK-3505","MEAN_MOTION_DDOT":"0.0000000000000","OBJECT_TYPE":"PAYLOAD","SEMIMAJOR_AXIS":"6917.885","RA_OF_ASC_NODE":"145.2417","REF_FRAME":"TEME","INCLINATION":"53.2163","RCS_SIZE":"LARGE","FILE":"3519265","TLE_LINE2":"2 51750  53.2163 145.2417 0002164  54.5145 329.7019 15.08838450  1308","ARG_OF_PERICENTER":"54.5145","REV_AT_EPOCH":"130"},{"TLE_LINE2":"2 51751  53.2161 145.2392 0001882  56.5743 267.6645 15.08826707  1308","FILE":"3519265","RCS_SIZE":"LARGE","INCLINATION":"53.2161","REV_AT_EPOCH":"130","ARG_OF_PERICENTER":"56.5743","OBJECT_TYPE":"PAYLOAD","MEAN_MOTION_DDOT":"0.0000000000000","OBJECT_NAME":"STARLINK-3506","DECAY_DATE":null,"CENTER_NAME":"EARTH","MEAN_MOTION_DOT":"-0.00004507","MEAN_MOTION":"15.08826707","LAUNCH_DATE":"2022-02-21","REF_FRAME":"TEME","RA_OF_ASC_NODE":"145.2392","SEMIMAJOR_AXIS":"6917.921","GP_ID":"208606927","NORAD_CAT_ID":"51751","ELEMENT_SET_NO":"999","TIME_SYSTEM":"UTC","ECCENTRICITY":"0.00018820","MEAN_ELEMENT_THEORY":"SGP4","TLE_LINE1":"1 51751U 22016AP  22202.91667824 -.00004507  00000-0 -26536-3 0  9994","SITE":"AFETR","EPOCH":"2022-07-21T22:00:00.999936","BSTAR":"-0.00026536000000","APOAPSIS":"541.088","PERIOD":"95.438","MEAN_ANOMALY":"267.6645","PERIAPSIS":"538.484","EPHEMERIS_TYPE":"0","OBJECT_ID":"2022-016AP","CLASSIFICATION_TYPE":"U","COUNTRY_CODE":"US"}];
